start=new Date('2022-10-10T00:00:00.000Z').valueOf();
sats=[{"RA_OF_ASC_NODE":"267.2575","PERIAPSIS":"538.676","MEAN_MOTION":"15.08840574","GP_ID":"214605390","CENTER_NAME":"EARTH","MEAN_MOTION_DDOT":"0.0000000000000","APOAPSIS":"540.812","CLASSIFICATION_TYPE":"U","ELEMENT_SET_NO":"999","MEAN_ANOMALY":"303.7471","MEAN_ELEMENT_THEORY":"SGP4","EPOCH":"2022-10-09T15:48:46.967616","FILE":"3598879","NORAD_CAT_ID":"52457","TIME_SYSTEM":"UTC","ECCENTRICITY":"0.00015440","TLE_LINE2":"2 52457  53.2188 267.2575 0001544  56.3668 303.7471 15.08840574 23859","LAUNCH_DATE":"2022-05-06","MEAN_MOTION_DOT":"0.00000072","PERIOD":"95.438","SITE":"AFETR","RCS_SIZE":"LARGE","INCLINATION":"53.2188","OBJECT_TYPE":"PAYLOAD","EPHEMERIS_TYPE":"0","BSTAR":"0.00002262400000","REF_FRAME":"TEME","OBJECT_ID":"2022-049G","COUNTRY_CODE":"US","REV_AT_EPOCH":"2385","DECAY_DATE":null,"TLE_LINE1":"1 52457U 22049G   22282.65887694  .00000072  00000-0  22624-4 0  9998","SEMIMAJOR_AXIS":"6917.879","OBJECT_NAME":"STARLINK-3899","ARG_OF_PERICENTER":"56.3668"},{"GP_ID":"214603640","MEAN_MOTION":"15.08837240","MEAN_MOTION_DDOT":"0.0000000000000","CENTER_NAME":"EARTH","APOAPSIS":"541.232","RA_OF_ASC_NODE":"267.2694","PERIAPSIS":"538.275","EPOCH":"2022-10-09T15:43:29.209152","FILE":"3598879","ECCENTRICITY":"0.00021370","NORAD_CAT_ID":"52458","TIME_SYSTEM":"UTC","MEAN_MOTION_DOT":"-0.00000836","LAUNCH_DATE":"2022-05-06","TLE_LINE2":"2 52458  53.2181 267.2694 0002137  39.3907 320.7240 15.08837240 23850","ELEMENT_SET_NO":"999","CLASSIFICATION_TYPE":"U","MEAN_ELEMENT_THEORY":"SGP4","MEAN_ANOMALY":"320.7240","RCS_SIZE":"LARGE","OBJECT_TYPE":"PAYLOAD","INCLINATION":"53.2181","BSTAR":"-0.00003439000000","EPHEMERIS_TYPE":"0","REF_FRAME":"TEME","PERIOD":"95.438","SITE":"AFETR","ARG_OF_PERICENTER":"39.3907","TLE_LINE1":"1 52458U 22049H   22282.65519918 -.00000836  00000-0 -34390-4 0  9993","SEMIMAJOR_AXIS":"6917.889","OBJECT_NAME":"STARLINK-3898","OBJECT_ID":"2022-049H","COUNTRY_CODE":"US","REV_AT_EPOCH":"2385","DECAY_DATE":null},{"PERIOD":"95.438","SITE":"AFETR","RCS_SIZE":"LARGE","INCLINATION":"53.2148","OBJECT_TYPE":"PAYLOAD","EPHEMERIS_TYPE":"0","BSTAR":"0.00004402900000","REF_FRAME":"TEME","OBJECT_ID":"2022-049J","COUNTRY_CODE":"US","REV_AT_EPOCH":"2398","DECAY_DATE":null,"TLE_LINE1":"1 52459U 22049J   22282.64043807  .00000413  00000-0  44029-4 0  9991","SEMIMAJOR_AXIS":"6917.879","OBJECT_NAME":"STARLINK-3856","ARG_OF_PERICENTER":"47.2127","RA_OF_ASC_NODE":"257.3359","PERIAPSIS":"538.664","MEAN_MOTION":"15.08840608","GP_ID":"214604887","CENTER_NAME":"EARTH","MEAN_MOTION_DDOT":"0.0000000000000","APOAPSIS":"540.823","CLASSIFICATION_TYPE":"U","ELEMENT_SET_NO":"999","MEAN_ANOMALY":"312.8996","MEAN_ELEMENT_THEORY":"SGP4","EPOCH":"2022-10-09T15:22:13.849248","FILE":"3598879","NORAD_CAT_ID":"52459","TIME_SYSTEM":"UTC","ECCENTRICITY":"0.00015600","TLE_LINE2":"2 52459  53.2148 257.3359 0001560  47.2127 312.8996 15.08840608 23989","LAUNCH_DATE":"2022-05-06","MEAN_MOTION_DOT":"0.00000413"},{"MEAN_ELEMENT_THEORY":"SGP4","MEAN_ANOMALY":"303.0830","ELEMENT_SET_NO":"999","CLASSIFICATION_TYPE":"U","FILE":"3598879","TIME_SYSTEM":"UTC","NORAD_CAT_ID":"52460","ECCENTRICITY":"0.00017900","LAUNCH_DATE":"2022-05-06","MEAN_MOTION_DOT":"-0.00001631","TLE_LINE2":"2 52460  53.2161 257.3517 0001790  57.0334 303.0830 15.08832053 23980","EPOCH":"2022-10-09T15:18:19.189440","PERIAPSIS":"538.531","RA_OF_ASC_NODE":"257.3517","MEAN_MOTION_DDOT":"0.0000000000000","CENTER_NAME":"EARTH","APOAPSIS":"541.008","GP_ID":"214605135","MEAN_MOTION":"15.08832053","REV_AT_EPOCH":"2398","DECAY_DATE":null,"OBJECT_ID":"2022-049K","COUNTRY_CODE":"US","TLE_LINE1":"1 52460U 22049K   22282.63772210 -.00001631  00000-0 -84426-4 0  9999","ARG_OF_PERICENTER":"57.0334","SEMIMAJOR_AXIS":"6917.905","OBJECT_NAME":"STARLINK-3865","SITE":"AFETR","PERIOD":"95.438","BSTAR":"-0.00008442600000","EPHEMERIS_TYPE":"0","REF_FRAME":"TEME","RCS_SIZE":"LARGE","OBJECT_TYPE":"PAYLOAD","INCLINATION":"53.2161"},{"REV_AT_EPOCH":"2412","DECAY_DATE":null,"OBJECT_ID":"2022-049L","COUNTRY_CODE":"US","ARG_OF_PERICENTER":"47.9479","TLE_LINE1":"1 52461U 22049L   22282.63767948  .00000511  00000-0  50219-4 0  9999","SEMIMAJOR_AXIS":"6917.892","OBJECT_NAME":"STARLINK-3900","SITE":"AFETR","PERIOD":"95.438","BSTAR":"0.00005021900000","EPHEMERIS_TYPE":"0","REF_FRAME":"TEME","RCS_SIZE":"LARGE","OBJECT_TYPE":"PAYLOAD","INCLINATION":"53.2162","MEAN_ELEMENT_THEORY":"SGP4","MEAN_ANOMALY":"312.1674","ELEMENT_SET_NO":"999","CLASSIFICATION_TYPE":"U","FILE":"3598879","NORAD_CAT_ID":"52461","TIME_SYSTEM":"UTC","ECCENTRICITY":"0.00018960","LAUNCH_DATE":"2022-05-06","MEAN_MOTION_DOT":"0.00000511","TLE_LINE2":"2 52461  53.2162 247.3462 0001896  47.9479 312.1674 15.08836120 24128","EPOCH":"2022-10-09T15:18:15.507072","PERIAPSIS":"538.446","RA_OF_ASC_NODE":"247.3462","MEAN_MOTION_DDOT":"0.0000000000000","CENTER_NAME":"EARTH","APOAPSIS":"541.069","GP_ID":"214605807","MEAN_MOTION":"15.08836120"},{"SITE":"AFETR","PERIOD":"95.437","EPHEMERIS_TYPE":"0","BSTAR":"0.00005736700000","REF_FRAME":"TEME","RCS_SIZE":"LARGE","INCLINATION":"53.2164","OBJECT_TYPE":"PAYLOAD","REV_AT_EPOCH":"2398","DECAY_DATE":null,"OBJECT_ID":"2022-049M","COUNTRY_CODE":"US","TLE_LINE1":"1 52462U 22049M   22282.63307748  .00000625  00000-0  57367-4 0  9995","ARG_OF_PERICENTER":"43.3678","SEMIMAJOR_AXIS":"6917.874","OBJECT_NAME":"STARLINK-3903","PERIAPSIS":"538.448","RA_OF_ASC_NODE":"257.3699","CENTER_NAME":"EARTH","MEAN_MOTION_DDOT":"0.0000000000000","APOAPSIS":"541.030","MEAN_MOTION":"15.08842178","GP_ID":"214604140","MEAN_ANOMALY":"316.7461","MEAN_ELEMENT_THEORY":"SGP4","CLASSIFICATION_TYPE":"U","ELEMENT_SET_NO":"999","TIME_SYSTEM":"UTC","FILE":"3598879","NORAD_CAT_ID":"52462","ECCENTRICITY":"0.00018660","TLE_LINE2":"2 52462  53.2164 257.3699 0001866  43.3678 316.7461 15.08842178 23989","LAUNCH_DATE":"2022-05-06","MEAN_MOTION_DOT":"0.00000625","EPOCH":"2022-10-09T15:11:37.894272"},{"NORAD_CAT_ID":"52463","FILE":"3598879","TIME_SYSTEM":"UTC","ECCENTRICITY":"0.00017850","TLE_LINE2":"2 52463  53.2181 247.3615 0001785  45.2500 314.8637 15.08841005 24120","MEAN_MOTION_DOT":"-0.00000037","LAUNCH_DATE":"2022-05-06","EPOCH":"2022-10-09T15:12:57.600864","MEAN_ANOMALY":"314.8637","MEAN_ELEMENT_THEORY":"SGP4","CLASSIFICATION_TYPE":"U","ELEMENT_SET_NO":"999","CENTER_NAME":"EARTH","MEAN_MOTION_DDOT":"0.0000000000000","APOAPSIS":"540.977","MEAN_MOTION":"15.08841005","GP_ID":"214604388","PERIAPSIS":"538.507","RA_OF_ASC_NODE":"247.3615","OBJECT_NAME":"STARLINK-3885","TLE_LINE1":"1 52463U 22049N   22282.63400001 -.00000037  00000-0  15790-4 0  9994","SEMIMAJOR_AXIS":"6917.877","ARG_OF_PERICENTER":"45.2500","REV_AT_EPOCH":"2412","DECAY_DATE":null,"OBJECT_ID":"2022-049N","COUNTRY_CODE":"US","EPHEMERIS_TYPE":"0","BSTAR":"0.00001579000000","REF_FRAME":"TEME","RCS_SIZE":"LARGE","INCLINATION":"53.2181","OBJECT_TYPE":"PAYLOAD","SITE":"AFETR","PERIOD":"95.437"},{"OBJECT_TYPE":"PAYLOAD","INCLINATION":"53.2167","RCS_SIZE":"LARGE","REF_FRAME":"TEME","BSTAR":"0.00007658600000","EPHEMERIS_TYPE":"0","PERIOD":"95.438","SITE":"AFETR","TLE_LINE1":"1 52464U 22049P   22282.63676239  .00000931  00000-0  76586-4 0  9995","OBJECT_NAME":"STARLINK-3904","SEMIMAJOR_AXIS":"6917.891","ARG_OF_PERICENTER":"50.6216","COUNTRY_CODE":"US","OBJECT_ID":"2022-049P","DECAY_DATE":null,"REV_AT_EPOCH":"2398","GP_ID":"214604636","MEAN_MOTION":"15.08836658","APOAPSIS":"540.974","MEAN_MOTION_DDOT":"0.0000000000000","CENTER_NAME":"EARTH","RA_OF_ASC_NODE":"257.3560","PERIAPSIS":"538.537","EPOCH":"2022-10-09T15:16:56.270496","LAUNCH_DATE":"2022-05-06","MEAN_MOTION_DOT":"0.00000931","TLE_LINE2":"2 52464  53.2167 257.3560 0001761  50.6216 309.4931 15.08836658 23981","FILE":"3598879","TIME_SYSTEM":"UTC","NORAD_CAT_ID":"52464","ECCENTRICITY":"0.00017610","ELEMENT_SET_NO":"999","CLASSIFICATION_TYPE":"U","MEAN_ELEMENT_THEORY":"SGP4","MEAN_ANOMALY":"309.4931"},{"OBJECT_NAME":"STARLINK-3863","TLE_LINE1":"1 52465U 22049Q   22282.63032188  .00003190  00000-0  21840-3 0  9997","SEMIMAJOR_AXIS":"6917.875","ARG_OF_PERICENTER":"47.8647","OBJECT_ID":"2022-049Q","COUNTRY_CODE":"US","REV_AT_EPOCH":"2412","DECAY_DATE":null,"RCS_SIZE":"LARGE","INCLINATION":"53.2165","OBJECT_TYPE":"PAYLOAD","EPHEMERIS_TYPE":"0","BSTAR":"0.00021840000000","REF_FRAME":"TEME","PERIOD":"95.437","SITE":"AFETR","EPOCH":"2022-10-09T15:07:39.810432","ECCENTRICITY":"0.00017130","FILE":"3598879","NORAD_CAT_ID":"52465","TIME_SYSTEM":"UTC","TLE_LINE2":"2 52465  53.2165 247.3740 0001713  47.8647 312.2490 15.08841673 24124","LAUNCH_DATE":"2022-05-06","MEAN_MOTION_DOT":"0.00003190","CLASSIFICATION_TYPE":"U","ELEMENT_SET_NO":"999","MEAN_ANOMALY":"312.2490","MEAN_ELEMENT_THEORY":"SGP4","MEAN_MOTION":"15.08841673","GP_ID":"214605391","CENTER_NAME":"EARTH","MEAN_MOTION_DDOT":"0.0000000000000","APOAPSIS":"540.925","RA_OF_ASC_NODE":"247.3740","PERIAPSIS":"538.555"},{"EPOCH":"2022-10-09T15:01:01.886592","FILE":"3598879","NORAD_CAT_ID":"52466","ECCENTRICITY":"0.00019180","TIME_SYSTEM":"UTC","TLE_LINE2":"2 52466  53.2178 257.3976 0001918  40.9671 319.1465 15.08846620 23987","MEAN_MOTION_DOT":"0.00000936","LAUNCH_DATE":"2022-05-06","CLASSIFICATION_TYPE":"U","ELEMENT_SET_NO":"999","MEAN_ANOMALY":"319.1465","MEAN_ELEMENT_THEORY":"SGP4","MEAN_MOTION":"15.08846620","GP_ID":"214603641","CENTER_NAME":"EARTH","MEAN_MOTION_DDOT":"0.0000000000000","APOAPSIS":"541.052","RA_OF_ASC_NODE":"257.3976","PERIAPSIS":"538.398","TLE_LINE1":"1 52466U 22049R   22282.62571628  .00000936  00000-0  76866-4 0  9998","SEMIMAJOR_AXIS":"6917.860","ARG_OF_PERICENTER":"40.9671","OBJECT_NAME":"STARLINK-3840","OBJECT_ID":"2022-049R","COUNTRY_CODE":"US","REV_AT_EPOCH":"2398","DECAY_DATE":null,"RCS_SIZE":"LARGE","INCLINATION":"53.2178","OBJECT_TYPE":"PAYLOAD","EPHEMERIS_TYPE":"0","BSTAR":"0.00007686600000","REF_FRAME":"TEME","PERIOD":"95.437","SITE":"AFETR"}];
